PANDORA
1 67395U 80229J   26070.68008102  .00000000  00000-0  37770-3 0    01
2 67395  97.8050  70.8710 0006809  91.9795 359.7858 14.87904587    05
